{"version": 0.6, "generator": "Overpass API 0.7.62.7 375dc00a", "osm3s": {"timestamp_osm_base": "2025-06-09T09:52:13Z", "copyright": "The data included in this document is from www.openstreetmap.org. The data is made available under ODbL."}, "elements": [{"type": "node", "id": 689033007, "lat": 51.4830359, "lon": 5.4495412, "tags": {"addr:city": "Eindhoven", "addr:country": "NL", "addr:housenumber": "37", "addr:postcode": "5627LE", "addr:street": "Biarritzplein", "branch": "Eindhoven Biarritzplein", "brand": "Jumbo", "brand:website": "https://www.jumbo.com/", "brand:wikidata": "Q2262314", "brand:wikipedia": "nl:Jumbo Supermarkten", "name": "Jumbo", "note": "Winkelgegevens van website Jumbo mogen in OSM onder ODbL gebruikt worden (toestemming ontvangen op 15-6-2012)", "phone": "+31 40 264 7360", "ref": "3459", "shop": "supermarket", "source": "BAG", "source:date": "2017-03-21", "website": "https://www.jumbo.com/winkel/eindhoven/jumbo-eindhoven-biarritzplein"}}, {"type": "node", "id": 2747617146, "lat": 51.4827209, "lon": 5.4489857, "tags": {"addr:city": "Eindhoven", "addr:country": "NL", "addr:housenumber": "1", "addr:postcode": "5627LE", "addr:street": "Biarritzplein", "name": "Kapsalon Biarritz", "shop": "hairdresser", "source": "BAG", "source:date": "2014-03-24"}}, {"type": "node", "id": 2747685698, "lat": 51.4795232, "lon": 5.4377151, "tags": {"addr:city": "Eindhoven", "addr:housenumber": "1", "addr:postcode": "5627BZ", "addr:street": "Ambachtsweg", "branch": "Eindhoven Acht", "brand": "Shurgard Storage Centers", "brand:wikidata": "Q3482670", "check_date:opening_hours": "2023-04-13", "name": "Shurgard Self-Storage", "opening_hours": "Mo-Fr 09:30-18:00; Sa 09:30-16:00", "phone": "+31 40 248 1400", "phone:NL": "0800 4100", "shop": "storage_rental", "source": "BAG", "source:date": "2014-03-24", "website": "https://www.shurgard.com/nl-nl/opslagruimte-in-nederland/eindhoven/eindhoven-acht"}}, {"type": "node", "id": 2747686065, "lat": 51.4811887, "lon": 5.4408437, "tags": {"addr:city": "Eindhoven", "addr:housenumber": "20", "addr:postcode": "5627BX", "addr:street": "Cahorslaan", "email": "scoutshopeindhoven@scouting.nl", "name": "Scoutshop Eindhoven", "opening_hours": "Mo 19:00-21:00; We 14:00-16:00; Th 19:00-21:00; PH off", "phone": "+31 6 51520167", "shop": "outdoor", "source": "BAG", "source:date": "2014-03-24"}}, {"type": "node", "id": 3812978474, "lat": 51.4831226, "lon": 5.4492287, "tags": {"addr:city": "Eindhoven", "addr:country": "NL", "addr:housenumber": "36", "addr:postcode": "5627LE", "addr:street": "Biarritzplein", "name": "De Brabantse fietsenmaker", "shop": "bicycle", "source": "BAG", "source:date": "2017-03-21", "website": "http://www.debrabantsefietsenmaker.nl/"}}, {"type": "node", "id": 3812978476, "lat": 51.4830692, "lon": 5.4486212, "tags": {"addr:city": "Eindhoven", "addr:country": "NL", "addr:housenumber": "17-19", "addr:postcode": "5627LE", "addr:street": "Biarritzplein", "brand": "Kruidvat", "brand:website": "https://www.kruidvat.nl", "brand:wikidata": "Q2226366", "brand:wikipedia": "nl:Kruidvat", "name": "Kruidvat", "opening_hours": "Mo-Fr 09:00-20:00; Sa 09:00-18:00; Su 10:00-17:00; PH off", "operator": "Kruidvat", "ref": "7367", "shop": "chemist", "source": "BAG", "source:date": "2014-03-24", "website": "https://www.kruidvat.nl/store/drogisterij-kruidvat-7367", "wheelchair": "yes"}}, {"type": "node", "id": 3812978480, "lat": 51.4828473, "lon": 5.4486227, "tags": {"addr:city": "Eindhoven", "addr:country": "NL", "addr:housenumber": "13", "addr:postcode": "5627LE", "addr:street": "Biarritzplein", "name": "Vintage Kappers", "shop": "hairdresser", "website": "https://www.vintagekappers.nl/kapperszaken/woensel-achtse-barrier-biarritzplein/"}}, {"type": "node", "id": 5881355938, "lat": 51.4776095, "lon": 5.4406895, "tags": {"name": "SIMA de VerhuurXpert", "shop": "tool_hire", "website": "https://www.sima.nl/"}}, {"type": "node", "id": 5881363563, "lat": 51.4775344, "lon": 5.4411205, "tags": {"name": "Verweij ElektroHulpdienst", "shop": "electrical"}}, {"type": "node", "id": 6143592110, "lat": 51.4779552, "lon": 5.4430447, "tags": {"name": "SOS Solutions", "shop": "radiotechnics"}}, {"type": "node", "id": 8750153956, "lat": 51.479037, "lon": 5.4381923, "tags": {"addr:city": "Eindhoven", "addr:housenumber": "1A", "addr:postcode": "5627BZ", "addr:street": "Ambachtsweg", "brand": "KwikFit", "brand:wikidata": "Q958053", "name": "KwikFit", "opening_hours": "Mo-Fr 08:00-17:30; Sa 08:00-17:00", "phone": "+31 40 2481407", "shop": "car_repair", "source": "BAG", "source:date": "2021-05-20", "website": "https://www.kwik-fit.nl/vestigingen/eindhoven/ambachtsweg-1a"}}]}